[{"OBJECT_NAME":"STARLINK-6206","OBJECT_ID":"2023-083A","EPOCH":"2026-03-09T01:50:48.375456","MEAN_MOTION":15.02539468,"ECCENTRICITY":0.00014325,"INCLINATION":43.0017,"RA_OF_ASC_NODE":85.5011,"ARG_OF_PERICENTER":272.9403,"MEAN_ANOMALY":87.1275,"EPHEMERIS_TYPE":0,"CLASSIFICATION_TYPE":"U","NORAD_CAT_ID":56876,"ELEMENT_SET_NO":999,"REV_AT_EPOCH":15157,"BSTAR":-2.0459368e-5,"MEAN_MOTION_DOT":-4.8e-6,"MEAN_MOTION_DDOT":0},{"OBJECT_NAME":"DELTA 1 DEB","OBJECT_ID":"1975-004G","EPOCH":"2026-03-09T15:36:08.786016","MEAN_MOTION":14.94952077,"ECCENTRICITY":0.0108933,"INCLINATION":98.7496,"RA_OF_ASC_NODE":312.2418,"ARG_OF_PERICENTER":37.6041,"MEAN_ANOMALY":323.2729,"EPHEMERIS_TYPE":0,"CLASSIFICATION_TYPE":"U","NORAD_CAT_ID":8679,"ELEMENT_SET_NO":999,"REV_AT_EPOCH":62753,"BSTAR":0.0013803,"MEAN_MOTION_DOT":0.00016927,"MEAN_MOTION_DDOT":0}]
